NORAD_CAT_ID,OBJECT_NAME,OBJECT_TYPE,EPOCH,MEAN_MOTION,ECCENTRICITY,INCLINATION,RA_OF_ASC_NODE,ARG_OF_PERICENTER,MEAN_ANOMALY,BSTAR,MEAN_MOTION_DOT,MEAN_MOTION_DDOT,TLE_LINE0,TLE_LINE1,TLE_LINE2,SEMIMAJOR_AXIS,PERIOD,APOGEE,PERIGEE,DECAYED
49455.0,STARLINK-3145,PAYLOAD,2024-08-03 16:22:45,15.08860393,0.0001899,53.2175,316.3452,94.1024,266.0185,0.0014616,0.00023063,0.0,0 STARLINK-3145,1 49455U 21104AZ  24216.68246727  .00023063  00000-0  14616-2 0  9996,2 49455  53.2175 316.3452 0001899  94.1024 266.0185 15.08860393150763,6917.818,95.436,540.997,538.369,0.0
49455.0,STARLINK-3145,PAYLOAD,2024-08-04 13:02:45,15.08857789,0.0001782,53.2175,312.4787,78.6134,281.5058,0.0014855,0.00023444,0.0,0 STARLINK-3145,1 49455U 21104AZ  24217.54358315  .00023444  00000-0  14855-2 0  9997,2 49455  53.2175 312.4787 0001782  78.6134 281.5058 15.08857789151960,6917.826,95.436,540.924,538.458,0.0
49455.0,STARLINK-3145,PAYLOAD,2024-08-05 12:53:32,15.08846816,0.0001404,53.2169,308.0159,79.968,280.1471,0.00032538,4.895e-05,0.0,0 STARLINK-3145,1 49455U 21104AZ  24218.53717718  .00004895  00000-0  32538-3 0  9991,2 49455  53.2169 308.0159 0001404  79.9680 280.1471 15.08846816152119,6917.86,95.437,540.696,538.753,0.0
49455.0,STARLINK-3145,PAYLOAD,2024-08-06 12:44:20,15.08825299,0.0001332,53.2164,303.5561,76.3868,283.7272,-0.00023097,-3.96e-05,0.0,0 STARLINK-3145,1 49455U 21104AZ  24219.53078801 -.00003960  00000-0 -23097-3 0  9999,2 49455  53.2164 303.5561 0001332  76.3868 283.7272 15.08825299152266,6917.925,95.438,540.712,538.869,0.0
49455.0,STARLINK-3145,PAYLOAD,2024-08-07 12:35:06,15.08846714,0.0001342,53.2165,299.0978,90.2504,269.8642,0.00027487,4.09e-05,0.0,0 STARLINK-3145,1 49455U 21104AZ  24220.52438323  .00004090  00000-0  27487-3 0  9999,2 49455  53.2165 299.0978 0001342  90.2504 269.8642 15.08846714152419,6917.86,95.437,540.653,538.796,0.0
49455.0,STARLINK-3145,PAYLOAD,2024-08-08 12:25:54,15.08840601,0.0001512,53.2153,294.6324,100.7524,259.3638,0.00020516,2.979e-05,0.0,0 STARLINK-3145,1 49455U 21104AZ  24221.51798644  .00002979  00000-0  20516-3 0  9994,2 49455  53.2153 294.6324 0001512 100.7524 259.3638 15.08840601151495,6917.879,95.438,540.79,538.698,0.0
49455.0,STARLINK-3145,PAYLOAD,2024-08-08 21:58:12,15.08848878,0.0001565,53.2161,292.8498,85.2667,274.8503,0.00022202,3.248e-05,0.0,0 STARLINK-3145,1 49455U 21104AZ  24221.91542383  .00003248  00000-0  22202-3 0  9999,2 49455  53.2161 292.8498 0001565  85.2667 274.8503 15.08848878152622,6917.853,95.437,540.801,538.636,0.0
49455.0,STARLINK-3145,PAYLOAD,2024-08-09 04:19:45,15.08835005,0.0001626,53.2156,291.6652,97.0317,263.0861,-0.00012234,-2.234e-05,0.0,0 STARLINK-3145,1 49455U 21104AZ  24222.18038886 -.00002234  00000-0 -12234-3 0  9997,2 49455  53.2156 291.6652 0001626  97.0317 263.0861 15.08835005152665,6917.896,95.438,540.886,538.636,0.0
49455.0,STARLINK-3145,PAYLOAD,2024-08-09 12:16:40,15.08850854,0.0001545,53.216,290.1728,102.5201,257.5964,0.00015026,2.105e-05,0.0,0 STARLINK-3145,1 49455U 21104AZ  24222.51158237  .00002105  00000-0  15026-3 0  9994,2 49455  53.2160 290.1728 0001545 102.5201 257.5964 15.08850854152719,6917.847,95.437,540.781,538.643,0.0
49455.0,STARLINK-3145,PAYLOAD,2024-08-10 04:10:32,15.08845173,0.0001659,53.2157,287.2003,100.8825,259.2353,0.00018932,2.727e-05,0.0,0 STARLINK-3145,1 49455U 21104AZ  24223.17398459  .00002727  00000-0  18932-3 0  9998,2 49455  53.2157 287.2003 0001659 100.8825 259.2353 15.08845173152817,6917.865,95.437,540.877,538.582,0.0
49455.0,STARLINK-3145,PAYLOAD,2024-08-10 10:32:04,15.0884475,0.0001704,53.216,286.0106,92.4915,267.6272,0.00015704,2.212e-05,0.0,0 STARLINK-3145,1 49455U 21104AZ  24223.43894527  .00002212  00000-0  15704-3 0  9997,2 49455  53.2160 286.0106 0001704  92.4915 267.6272 15.08844750151787,6917.866,95.437,540.91,538.552,0.0
49455.0,STARLINK-3145,PAYLOAD,2024-08-11 13:33:37,15.08859833,0.0001627,53.2166,280.9559,91.5554,268.5625,0.00024418,3.602e-05,0.0,0 STARLINK-3145,1 49455U 21104AZ  24224.56501401  .00003602  00000-0  24418-3 0  9994,2 49455  53.2166 280.9559 0001627  91.5554 268.5625 15.08859833153020,6917.82,95.436,540.81,538.559,0.0
49455.0,STARLINK-3145,PAYLOAD,2024-08-12 13:24:23,15.08864393,0.0001638,53.2168,276.498,95.1835,264.9344,0.00038226,5.805e-05,0.0,0 STARLINK-3145,1 49455U 21104AZ  24225.55860685  .00005805  00000-0  38226-3 0  9995,2 49455  53.2168 276.4980 0001638  95.1835 264.9344 15.08864393153175,6917.806,95.436,540.804,538.538,0.0
49455.0,STARLINK-3145,PAYLOAD,2024-08-12 14:59:46,15.08864162,0.0001616,53.2165,276.1994,96.5946,263.523,0.00036168,5.477e-05,0.0,0 STARLINK-3145,1 49455U 21104AZ  24225.62484604  .00005477  00000-0  36168-3 0  9994,2 49455  53.2165 276.1994 0001616  96.5946 263.5230 15.08864162152114,6917.807,95.436,540.789,538.554,0.0
49455.0,STARLINK-3145,PAYLOAD,2024-08-13 03:42:53,15.08830682,0.0001869,53.2164,273.8197,95.955,264.1655,-7.7344e-05,-1.519e-05,0.0,0 STARLINK-3145,1 49455U 21104AZ  24226.15478260 -.00001519  00000-0 -77344-4 0  9991,2 49455  53.2164 273.8197 0001869  95.9550 264.1655 15.08830682153261,6917.909,95.438,541.067,538.481,0.0
49455.0,STARLINK-3145,PAYLOAD,2024-08-13 10:04:27,15.0880916,0.0001764,53.2164,272.6287,83.9863,276.133,-0.00036233,-6.045e-05,0.0,0 STARLINK-3145,1 49455U 21104AZ  24226.41976033 -.00006045  00000-0 -36233-3 0  9991,2 49455  53.2164 272.6287 0001764  83.9863 276.1330 15.08809160153301,6917.975,95.44,541.06,538.619,0.0
49455.0,STARLINK-3145,PAYLOAD,2024-08-13 19:36:44,15.08835487,0.0001511,53.2168,270.8457,79.3906,280.7256,-4.3851e-05,-9.86e-06,0.0,0 STARLINK-3145,1 49455U 21104AZ  24226.81718568 -.00000986  00000-0 -43851-4 0  9995,2 49455  53.2168 270.8457 0001511  79.3906 280.7256 15.08835487153366,6917.894,95.438,540.804,538.714,0.0
49455.0,STARLINK-3145,PAYLOAD,2024-08-14 09:55:13,15.08838842,0.0001567,53.2159,268.1731,83.585,276.5321,0.00022283,3.26e-05,0.0,0 STARLINK-3145,1 49455U 21104AZ  24227.41334961  .00003260  00000-0  22283-3 0  9994,2 49455  53.2159 268.1731 0001567  83.5850 276.5321 15.08838842152382,6917.884,95.438,540.833,538.665,0.0
49455.0,STARLINK-3145,PAYLOAD,2024-08-14 19:27:32,15.08843405,0.0001576,53.2161,266.3887,82.503,277.6141,0.00029363,4.389e-05,0.0,0 STARLINK-3145,1 49455U 21104AZ  24227.81078860  .00004389  00000-0  29363-3 0  9990,2 49455  53.2161 266.3887 0001576  82.5030 277.6141 15.08843405152446,6917.87,95.437,540.825,538.645,0.0
49455.0,STARLINK-3145,PAYLOAD,2024-08-15 09:46:01,15.08825809,0.0001663,53.2163,263.7133,79.3219,280.796,0.00027649,4.113e-05,0.0,0 STARLINK-3145,1 49455U 21104AZ  24228.40695983  .00004113  00000-0  27649-3 0  9997,2 49455  53.2163 263.7133 0001663  79.3219 280.7960 15.08825809152535,6917.924,95.438,540.939,538.638,0.0
49455.0,STARLINK-3145,PAYLOAD,2024-08-15 19:18:19,15.0883427,0.0001804,53.2167,261.9295,77.8942,282.2253,0.00023707,3.486e-05,0.0,0 STARLINK-3145,1 49455U 21104AZ  24228.80439741  .00003486  00000-0  23707-3 0  9992,2 49455  53.2167 261.9295 0001804  77.8942 282.2253 15.08834270153660,6917.898,95.438,541.011,538.515,0.0
49455.0,STARLINK-3145,PAYLOAD,2024-08-16 09:36:48,15.08841206,0.0001757,53.2173,259.2526,77.8922,282.2267,9.0991e-05,1.16e-05,0.0,0 STARLINK-3145,1 49455U 21104AZ  24229.40055580  .00001160  00000-0  90991-4 0  9991,2 49455  53.2173 259.2526 0001757  77.8922 282.2267 15.08841206152682,6917.877,95.437,540.957,538.526,0.0
49455.0,STARLINK-3145,PAYLOAD,2024-08-17 01:30:39,15.08841811,0.0001704,53.2164,256.2771,74.5122,285.6058,0.00016055,2.268e-05,0.0,0 STARLINK-3145,1 49455U 21104AZ  24230.06295324  .00002268  00000-0  16055-3 0  9995,2 49455  53.2164 256.2771 0001704  74.5122 285.6058 15.08841811153856,6917.875,95.437,540.919,538.561,0.0
49455.0,STARLINK-3145,PAYLOAD,2024-08-17 11:02:57,15.08843752,0.0001678,53.2163,254.4921,72.3811,287.7364,0.00010689,1.414e-05,0.0,0 STARLINK-3145,1 49455U 21104AZ  24230.46039273  .00001414  00000-0  10689-3 0  9997,2 49455  53.2163 254.4921 0001678  72.3811 287.7364 15.08843752152840,6917.869,95.437,540.895,538.573,0.0
49455.0,STARLINK-3145,PAYLOAD,2024-08-18 06:07:35,15.0884085,0.00017,53.2162,250.9233,73.5512,286.5667,8.6712e-05,1.092e-05,0.0,0 STARLINK-3145,1 49455U 21104AZ  24231.25527456  .00001092  00000-0  86712-4 0  9993,2 49455  53.2162 250.9233 0001700  73.5512 286.5667 15.08840850152965,6917.878,95.438,540.919,538.567,0.0
49455.0,STARLINK-3145,PAYLOAD,2024-08-18 07:42:58,15.08842444,0.0001681,53.216,250.6259,74.4006,285.7172,6.9316e-05,8.15e-06,0.0,0 STARLINK-3145,1 49455U 21104AZ  24231.32151363  .00000815  00000-0  69316-4 0  9994,2 49455  53.2160 250.6259 0001681  74.4006 285.7172 15.08842444154048,6917.873,95.437,540.901,538.575,0.0
49455.0,STARLINK-3145,PAYLOAD,2024-08-19 12:19:55,15.08839399,0.0001543,53.2157,245.2725,86.5261,273.5908,2.5981e-05,1.26e-06,0.0,0 STARLINK-3145,1 49455U 21104AZ  24232.51383407  .00000126  00000-0  25981-4 0  9997,2 49455  53.2157 245.2725 0001543  86.5261 273.5908 15.08839399154223,6917.882,95.438,540.815,538.68,0.0
49455.0,STARLINK-3145,PAYLOAD,2024-08-20 12:10:41,15.08843411,0.0001585,53.2158,240.8124,87.6638,272.4536,8.0867e-05,9.99e-06,0.0,0 STARLINK-3145,1 49455U 21104AZ  24233.50743018  .00000999  00000-0  80867-4 0  9997,2 49455  53.2158 240.8124 0001585  87.6638 272.4536 15.08843411153307,6917.87,95.437,540.831,538.638,0.0
49455.0,STARLINK-3145,PAYLOAD,2024-08-21 04:04:34,15.08834416,0.0001569,53.2155,237.8379,88.3702,271.747,4.5213e-05,4.32e-06,0.0,0 STARLINK-3145,1 49455U 21104AZ  24234.16983832  .00000432  00000-0  45213-4 0  9998,2 49455  53.2155 237.8379 0001569  88.3702 271.7470 15.08834416154477,6917.897,95.438,540.848,538.677,0.0
49455.0,STARLINK-3145,PAYLOAD,2024-08-21 07:15:20,15.08832226,0.000155,53.2155,237.2433,87.55,272.567,2.2247e-05,6.6e-07,0.0,0 STARLINK-3145,1 49455U 21104AZ  24234.30232068  .00000066  00000-0  22247-4 0  9997,2 49455  53.2155 237.2433 0001550  87.5500 272.5670 15.08832226153421,6917.904,95.438,540.841,538.697,0.0
